{
  "norad_id": 43698,
  "name": "GSAT-29",
  "history": [
    {
      "epoch": "2026-03-28T21:29:38.619168Z",
      "apogee_km": 35796.41153175469,
      "perigee_km": 35777.410274567614,
      "latitude_deg": 0.019345396924606184,
      "longitude_deg": 55.02985030299883,
      "height_km": 35795.47416924137,
      "semi_major_axis_km": 42165.047903161154,
      "eccentricity": 0.00022532,
      "inclination_deg": 0.0137,
      "raan_deg": 116.4384,
      "arg_perigee_deg": 249.3335,
      "mean_anomaly_deg": 197.9629,
      "mean_motion_rev_day": 1.00270658
    },
    {
      "epoch": "2026-03-29T03:01:37.358112Z",
      "apogee_km": 35796.381245984514,
      "perigee_km": 35777.38168866313,
      "latitude_deg": 0.016764046649676168,
      "longitude_deg": 55.01149932712787,
      "height_km": 35784.62365356278,
      "semi_major_axis_km": 42165.018467323825,
      "eccentricity": 0.0002253,
      "inclination_deg": 0.0151,
      "raan_deg": 116.7892,
      "arg_perigee_deg": 249.6969,
      "mean_anomaly_deg": 280.4699,
      "mean_motion_rev_day": 1.00270763
    }
  ]
}